[{"OBJECT_NAME":"XINGYUN-2 01","OBJECT_ID":"2020-028A","EPOCH":"2026-03-09T23:27:57.512736","MEAN_MOTION":15.11323975,"ECCENTRICITY":0.00090563,"INCLINATION":97.4853,"RA_OF_ASC_NODE":63.3977,"ARG_OF_PERICENTER":174.572,"MEAN_ANOMALY":185.561,"EPHEMERIS_TYPE":0,"CLASSIFICATION_TYPE":"U","NORAD_CAT_ID":45602,"ELEMENT_SET_NO":999,"REV_AT_EPOCH":31985,"BSTAR":0.000253969,"MEAN_MOTION_DOT":4.22e-5,"MEAN_MOTION_DDOT":0},{"OBJECT_NAME":"STARLINK-4018","OBJECT_ID":"2022-053AT","EPOCH":"2026-03-09T10:50:19.831488","MEAN_MOTION":15.0883544,"ECCENTRICITY":0.0001339,"INCLINATION":53.2174,"RA_OF_ASC_NODE":150.1934,"ARG_OF_PERICENTER":72.6851,"MEAN_ANOMALY":287.4287,"EPHEMERIS_TYPE":0,"CLASSIFICATION_TYPE":"U","NORAD_CAT_ID":52697,"ELEMENT_SET_NO":999,"REV_AT_EPOCH":21105,"BSTAR":4.6704139e-5,"MEAN_MOTION_DOT":4.55e-6,"MEAN_MOTION_DDOT":0}]
